[Satellite]
VERSION=1.1
NAME=NOAA 2 [-]
NICKNAME=NOAA 2 [-]
TLE1=1 06235U 72082A   18020.86856670 -.00000042  00000-0  18332-4 0  9990
TLE2=2 06235 101.7175 347.6631 0003831 289.5676  98.1243 12.53100307 70486
